JILIN-1 03              
1 41914U 17002B   26193.27135006  .00008290  00000+0  19508-3 0  9998
2 41914  97.1947 200.0119 0007954  87.3197 272.8962 15.42181713525721
CARTOSAT-2D             
1 41948U 17008A   26193.31843479  .00002388  00000+0  11641-3 0  9998
2 41948  97.4098 252.1531 0005726 146.7730 213.3866 15.19270109521396
CARTOSAT-2E             
1 42767U 17036C   26193.33614594  .00002422  00000+0  11815-3 0  9997
2 42767  97.4269 252.7223 0002935 197.4664 162.6470 15.19241802501964
IRIDIUM 113             
1 42803U 17039A   26193.28725785 -.00000026  00000+0 -16342-4 0  9991
2 42803  86.3989 311.6877 0002044  90.8705 269.2726 14.34217005474785
NORSAT 2                
1 42828U 17042D   26192.28514055  .00006187  00000+0  27070-3 0  9998
2 42828  97.4047   5.3526 0008519 333.5830  26.4971 15.22382300491409
TECHNOSAT               
1 42829U 17042E   26193.31433347  .00002176  00000+0  15666-3 0  9990
2 42829  97.4310 350.0210 0017694  12.7462 347.4209 15.05099876490485
FLYING LAPTOP           
1 42831U 17042G   26193.31410569  .00001958  00000+0  15612-3 0  9992
2 42831  97.4789 347.8994 0019820  41.6471 318.6259 15.01300469490221
WNISAT 1R               
1 42835U 17042L   26192.87756639  .00000712  00000+0  58908-4 0  9990
2 42835  97.4825 348.1181 0011261  74.9901 285.2570 15.01854496490214
LEMUR-2-GREENBERG       
1 42837U 17042N   26190.49536315  .00011532  00000+0  37497-3 0  9996
2 42837  97.3831  11.0293 0007135 283.6729  76.3718 15.32031511491802
LEMUR-2-FURIAUS         
1 42840U 17042R   26191.74629141  .00012077  00000+0  40490-3 0  9991
2 42840  97.3778  10.1778 0006359 347.2297  12.8782 15.31036825491817
CORVUS BC2              
1 42846U 17042X   26191.31136565  .00002103  00000+0  14633-3 0  9992
2 42846  97.4090 351.7667 0013871  39.1681 321.0548 15.06442373490548
CORVUS BC1              
1 42847U 17042Y   26192.89740494  .00001341  00000+0  94397-4 0  9998
2 42847  97.4117 354.1218 0011945  12.2872 347.8644 15.06611168490815
VRSS-2                  
1 42954U 17060A   26193.31701483  .00000343  00000+0  50365-4 0  9998
2 42954  97.6508 229.9108 0017702  22.7492 337.4502 14.81234014472178
MOHAMMED VI-A           
1 43005U 17070A   26193.34318678 -.00000054  00000+0 -44778-6 0  9994
2 43005  97.9554 265.3269 0001188  93.8663 266.2683 14.77099031467695
FENGYUN 3D              
1 43010U 17072A   26193.23633940  .00000127  00000+0  81879-4 0  9992
2 43010  99.0136 168.1128 0001726  21.1648 338.9598 14.19744762448548
NOAA 20 (JPSS-1)        
1 43013U 17073A   26193.30590548  .00000012  00000+0  26548-4 0  9995
2 43013  98.7774 132.5459 0001277 126.9784 233.1510 14.19516117448038
MAKERSAT 0              
1 43016U 17073D   26193.12268903  .00011859  00000+0  31444-3 0  9996
2 43016  97.4594  75.8460 0105288 183.1958 176.8625 15.32930037470282
RADFXSAT (FOX-1B)       
1 43017U 17073E   26193.07687025  .00003550  00000+0  15680-3 0  9994
2 43017  97.4678  59.7847 0148086 242.3404 116.2732 15.13035809469156
JILIN-1 04              
1 43022U 17074A   26193.25225935  .00008371  00000+0  19141-3 0  9991
2 43022  97.4872 303.5458 0005260 108.1643 252.0177 15.43079179478137
JILIN-1 05              
1 43023U 17074B   26193.29929934  .00004518  00000+0  13866-3 0  9993
2 43023  97.4879 299.8009 0006322 132.6426 227.5351 15.34255455477857
JILIN-1 06              
1 43024U 17074C   26193.27466321  .00003477  00000+0  10819-3 0  9996
2 43024  97.4804 296.7520 0007908 142.9538 217.2252 15.33974803477680
IRIDIUM 116             
1 43072U 17083C   26193.33165552  .00000112  00000+0  33074-4 0  9990
2 43072  86.3987 311.4902 0002391  99.4154 260.7312 14.34217071447776
IRIDIUM 130             
1 43073U 17083D   26192.81156685  .00000125  00000+0  37408-4 0  9999
2 43073  86.3992 311.9851 0002181 100.5131 259.6311 14.34217059447645
LKW-2                   
1 43080U 17084A   26193.26587226  .00001734  00000+0  68695-4 0  9996
2 43080  97.1185 231.8924 0003468 124.4985 235.6582 15.26661951475516
SUPERVIEW-1 03          
1 43099U 18002A   26193.31692751  .00012635  00000+0  30503-3 0  9991
2 43099  97.3136 278.1290 0047118  91.1900 269.4745 15.40145202472235
CARTOSAT-2F             
1 43111U 18004A   26193.30286448  .00003400  00000+0  16454-3 0  9998
2 43111  97.4782 252.6904 0002454 142.5355 217.6051 15.19258704471148
LKW-3                   
1 43146U 18006A   26193.27388385  .00005649  00000+0  16517-3 0  9994
2 43146  97.6626 354.8392 0002719 189.5280 170.5912 15.35708604472560
ASNARO-2                
1 43152U 18007A   26193.29397147  .00005355  00000+0  23462-3 0  9991
2 43152  97.3970 199.8286 0001980  94.6563 265.4900 15.22422821471238
